2023-011C               
1 55326U 23011C   23025.73709432  .00026428  00000+0  18121-2 0  9991
2 55326  40.5013 274.8538 0001052 224.6448 135.4231 15.05445532   116
2023-011D               
1 55327U 23011D   23025.73698045  .00007435  00000+0  51629-3 0  9997
2 55327  40.5052 274.8510 0002175 218.4266 141.6327 15.05658097   113
2023-011E               
1 55328U 23011E   23025.67132097 -.00000371  00000+0  00000+0 0  9997
2 55328  40.4960 275.0255 0167556 130.8785 318.1226 15.40815125   113
